NORAD_CAT_ID,OBJECT_NAME,OBJECT_TYPE,EPOCH,MEAN_MOTION,ECCENTRICITY,INCLINATION,RA_OF_ASC_NODE,ARG_OF_PERICENTER,MEAN_ANOMALY,BSTAR,MEAN_MOTION_DOT,MEAN_MOTION_DDOT,TLE_LINE0,TLE_LINE1,TLE_LINE2,SEMIMAJOR_AXIS,PERIOD,APOGEE,PERIGEE,DECAYED
52536.0,STARLINK-3964,PAYLOAD,2024-04-17 02:15:04,15.08862631,0.0001317,53.218,353.8146,104.2039,255.91,0.00032332,4.865e-05,0.0,0 STARLINK-3964,1 52536U 22051D   24108.09380186  .00004865  00000-0  32332-3 0  9990,2 52536  53.2180 353.8146 0001317 104.2039 255.9100 15.08862631107104,6917.811,95.436,540.587,538.765,0.0
52536.0,STARLINK-3964,PAYLOAD,2024-04-17 19:44:20,15.0882671,0.0001518,53.2173,350.5445,91.5328,268.5838,-8.895e-05,-1.703e-05,0.0,0 STARLINK-3964,1 52536U 22051D   24108.82246123 -.00001703  00000-0 -88950-4 0  9991,2 52536  53.2173 350.5445 0001518  91.5328 268.5838 15.08826710107212,6917.921,95.438,540.836,538.736,0.0
52536.0,STARLINK-3964,PAYLOAD,2024-04-17 21:19:43,15.08825378,0.0001437,53.2172,350.2462,93.1594,266.9562,-0.00011187,-2.067e-05,0.0,0 STARLINK-3964,1 52536U 22051D   24108.88870251 -.00002067  00000-0 -11187-3 0  9993,2 52536  53.2172 350.2462 0001437  93.1594 266.9562 15.08825378107158,6917.925,95.438,540.784,538.796,0.0
52536.0,STARLINK-3964,PAYLOAD,2024-04-17 22:55:07,15.08821644,0.00013,53.217,349.951,79.4622,280.6516,-0.00019967,-3.463e-05,0.0,0 STARLINK-3964,1 52536U 22051D   24108.95494462 -.00003463  00000-0 -19967-3 0  9992,2 52536  53.2170 349.9510 0001300  79.4622 280.6516 15.08821644107168,6917.936,95.439,540.701,538.902,0.0
52536.0,STARLINK-3964,PAYLOAD,2024-04-18 21:10:31,15.08827877,0.0001995,53.2182,345.786,63.4178,296.7018,0.00018123,2.596e-05,0.0,0 STARLINK-3964,1 52536U 22051D   24109.88231388  .00002596  00000-0  18123-3 0  9998,2 52536  53.2182 345.7860 0001995  63.4178 296.7018 15.08827877107374,6917.917,95.438,541.163,538.402,0.0
52536.0,STARLINK-3964,PAYLOAD,2024-04-19 14:39:45,15.0884964,0.0002552,53.2179,342.5169,139.015,221.1035,0.00050785,7.806e-05,0.0,0 STARLINK-3964,1 52536U 22051D   24110.61094420  .00007806  00000-0  50785-3 0  9994,2 52536  53.2179 342.5169 0002552 139.0150 221.1035 15.08849640107415,6917.851,95.437,541.481,537.95,0.0
52536.0,STARLINK-3964,PAYLOAD,2024-04-19 21:01:18,15.08845994,0.0001693,53.2176,341.3216,107.3635,252.7543,0.00046147,7.065e-05,0.0,0 STARLINK-3964,1 52536U 22051D   24110.87590858  .00007065  00000-0  46147-3 0  9992,2 52536  53.2176 341.3216 0001693 107.3635 252.7543 15.08845994107527,6917.862,95.437,540.898,538.556,0.0
52536.0,STARLINK-3964,PAYLOAD,2024-04-20 00:12:04,15.08850723,0.0001745,53.218,340.7267,107.0914,253.0269,0.00048834,7.495e-05,0.0,0 STARLINK-3964,1 52536U 22051D   24111.00838620  .00007495  00000-0  48834-3 0  9992,2 52536  53.2180 340.7267 0001745 107.0914 253.0269 15.08850723107475,6917.848,95.437,540.92,538.505,0.0
52536.0,STARLINK-3964,PAYLOAD,2024-04-20 20:52:05,15.08837794,0.0001561,53.2179,336.8616,126.7217,233.3919,-0.00010949,-2.03e-05,0.0,0 STARLINK-3964,1 52536U 22051D   24111.86950725 -.00002030  00000-0 -10949-3 0  9995,2 52536  53.2179 336.8616 0001561 126.7217 233.3919 15.08837794107675,6917.887,95.438,540.832,538.672,0.0
52536.0,STARLINK-3964,PAYLOAD,2024-04-21 00:02:52,15.08831627,0.0001255,53.2165,336.274,119.5075,240.6043,-0.00019853,-3.445e-05,0.0,0 STARLINK-3964,1 52536U 22051D   24112.00199299 -.00003445  00000-0 -19853-3 0  9997,2 52536  53.2165 336.2740 0001255 119.5075 240.6043 15.08831627107694,6917.906,95.438,540.639,538.903,0.0
52536.0,STARLINK-3964,PAYLOAD,2024-04-21 14:21:20,15.08838031,0.0001479,53.2177,333.5908,80.8255,279.2905,3.3845e-05,2.51e-06,0.0,0 STARLINK-3964,1 52536U 22051D   24112.59815730  .00000251  00000-0  33845-4 0  9994,2 52536  53.2177 333.5908 0001479  80.8255 279.2905 15.08838031107715,6917.886,95.438,540.775,538.728,0.0
52536.0,STARLINK-3964,PAYLOAD,2024-04-21 20:42:52,15.08842956,0.0001715,53.2176,332.4094,64.2454,295.8715,0.00026516,3.935e-05,0.0,0 STARLINK-3964,1 52536U 22051D   24112.86311202  .00003935  00000-0  26516-3 0  9997,2 52536  53.2176 332.4094 0001715  64.2454 295.8715 15.08842956107824,6917.871,95.437,540.923,538.55,0.0
52536.0,STARLINK-3964,PAYLOAD,2024-04-21 22:18:15,15.08848491,0.0001888,53.2184,332.1117,67.748,292.3712,0.00031335,4.704e-05,0.0,0 STARLINK-3964,1 52536U 22051D   24112.92934999  .00004704  00000-0  31335-3 0  9998,2 52536  53.2184 332.1117 0001888  67.7480 292.3712 15.08848491107766,6917.854,95.437,541.026,538.413,0.0
52536.0,STARLINK-3964,PAYLOAD,2024-04-22 20:33:39,15.0883925,0.0001185,53.2178,327.9396,118.0538,242.0575,0.00017283,2.464e-05,0.0,0 STARLINK-3964,1 52536U 22051D   24113.85671192  .00002464  00000-0  17283-3 0  9991,2 52536  53.2178 327.9396 0001185 118.0538 242.0575 15.08839250107979,6917.883,95.438,540.567,538.928,0.0
52536.0,STARLINK-3964,PAYLOAD,2024-04-22 23:44:26,15.08835847,0.0001085,53.2172,327.3461,121.1121,238.9978,7.2575e-05,8.67e-06,0.0,0 STARLINK-3964,1 52536U 22051D   24113.98919250  .00000867  00000-0  72575-4 0  9996,2 52536  53.2172 327.3461 0001085 121.1121 238.9978 15.08835847107926,6917.893,95.438,540.509,539.007,0.0
52536.0,STARLINK-3964,PAYLOAD,2024-04-23 20:24:26,15.08848162,0.0001344,53.2181,323.4826,89.0669,271.0477,6.2724e-05,7.11e-06,0.0,0 STARLINK-3964,1 52536U 22051D   24114.85031057  .00000711  00000-0  62724-4 0  9996,2 52536  53.2181 323.4826 0001344  89.0669 271.0477 15.08848162108056,6917.855,95.437,540.65,538.791,0.0
52536.0,STARLINK-3964,PAYLOAD,2024-04-23 23:35:13,15.08848546,0.0001324,53.2181,322.888,91.0112,269.1032,8.8367e-05,1.119e-05,0.0,0 STARLINK-3964,1 52536U 22051D   24114.98278998  .00001119  00000-0  88367-4 0  9991,2 52536  53.2181 322.8880 0001324  91.0112 269.1032 15.08848546108144,6917.854,95.437,540.635,538.803,0.0
52536.0,STARLINK-3964,PAYLOAD,2024-04-24 20:15:14,15.08837436,0.0001241,53.2167,319.0137,146.1219,213.9852,7.5386e-05,9.12e-06,0.0,0 STARLINK-3964,1 52536U 22051D   24115.84391352  .00000912  00000-0  75386-4 0  9994,2 52536  53.2167 319.0137 0001241 146.1219 213.9852 15.08837436108276,6917.888,95.438,540.612,538.895,0.0
52536.0,STARLINK-3964,PAYLOAD,2024-04-24 23:26:00,15.0883446,0.0001309,53.2176,318.4267,121.9704,238.1415,9.6781e-05,1.252e-05,0.0,0 STARLINK-3964,1 52536U 22051D   24115.97639671  .00001252  00000-0  96781-4 0  9997,2 52536  53.2176 318.4267 0001309 121.9704 238.1415 15.08834460108221,6917.897,95.438,540.668,538.857,0.0
52536.0,STARLINK-3964,PAYLOAD,2024-04-25 20:06:01,15.0884679,0.0001081,53.2175,314.5583,125.5016,234.6077,-1.9254e-05,-5.94e-06,0.0,0 STARLINK-3964,1 52536U 22051D   24116.83751283 -.00000594  00000-0 -19254-4 0  9997,2 52536  53.2175 314.5583 0001081 125.5016 234.6077 15.08846790108359,6917.86,95.437,540.472,538.977,0.0
52536.0,STARLINK-3964,PAYLOAD,2024-04-26 05:38:18,15.08858648,0.0001192,53.22,312.7775,85.9052,274.2076,7.3633e-05,8.85e-06,0.0,0 STARLINK-3964,1 52536U 22051D   24117.23494104  .00000885  00000-0  73633-4 0  9990,2 52536  53.2200 312.7775 0001192  85.9052 274.2076 15.08858648108481,6917.823,95.436,540.513,538.864,0.0
52536.0,STARLINK-3964,PAYLOAD,2024-04-26 19:56:49,15.08831311,0.0001359,53.2184,310.1086,119.5702,240.5426,5.6213e-05,6.07e-06,0.0,0 STARLINK-3964,1 52536U 22051D   24117.83112305  .00000607  00000-0  56213-4 0  9993,2 52536  53.2184 310.1086 0001359 119.5702 240.5426 15.08831311108573,6917.907,95.438,540.712,538.832,0.0
52536.0,STARLINK-3964,PAYLOAD,2024-04-27 05:29:05,15.08863156,0.0001073,53.2183,308.3159,117.7501,242.36,0.00011797,1.591e-05,0.0,0 STARLINK-3964,1 52536U 22051D   24118.22853790  .00001591  00000-0  11797-3 0  9997,2 52536  53.2183 308.3159 0001073 117.7501 242.3600 15.08863156108635,6917.81,95.436,540.417,538.932,0.0
52536.0,STARLINK-3964,PAYLOAD,2024-04-27 21:22:59,15.08834702,0.0001341,53.2188,305.3491,117.2615,242.8514,1.4567e-05,-5.6e-07,0.0,0 STARLINK-3964,1 52536U 22051D   24118.89096383 -.00000056  00000-0  14567-4 0  9992,2 52536  53.2188 305.3491 0001341 117.2615 242.8514 15.08834702108730,6917.897,95.438,540.689,538.834,0.0
52536.0,STARLINK-3964,PAYLOAD,2024-04-28 05:19:53,15.08847834,0.0001186,53.2176,303.86,91.1965,268.9163,5.6243e-05,6.08e-06,0.0,0 STARLINK-3964,1 52536U 22051D   24119.22215123  .00000608  00000-0  56243-4 0  9994,2 52536  53.2176 303.8600 0001186  91.1965 268.9163 15.08847834108781,6917.856,95.437,540.542,538.901,0.0
52536.0,STARLINK-3964,PAYLOAD,2024-04-28 21:13:46,15.08838458,0.0001185,53.2178,300.884,85.4399,274.6728,4.2584e-05,3.9e-06,0.0,0 STARLINK-3964,1 52536U 22051D   24119.88456256  .00000390  00000-0  42584-4 0  9991,2 52536  53.2178 300.8840 0001185  85.4399 274.6728 15.08838458108886,6917.885,95.438,540.57,538.93,0.0
52536.0,STARLINK-3964,PAYLOAD,2024-04-29 05:10:40,15.08855694,0.0001202,53.2181,299.3969,85.0614,275.0515,7.6456e-05,9.3e-06,0.0,0 STARLINK-3964,1 52536U 22051D   24120.21574834  .00000930  00000-0  76456-4 0  9998,2 52536  53.2181 299.3969 0001202  85.0614 275.0515 15.08855694108936,6917.832,95.437,540.529,538.866,0.0
52536.0,STARLINK-3964,PAYLOAD,2024-04-29 11:32:14,15.08842302,0.0001997,53.2168,298.2093,86.7685,273.3535,0.00031909,4.794e-05,0.0,0 STARLINK-3964,1 52536U 22051D   24120.48071867  .00004794  00000-0  31909-3 0  9990,2 52536  53.2168 298.2093 0001997  86.7685 273.3535 15.08842302108973,6917.873,95.437,541.12,538.357,0.0
52536.0,STARLINK-3964,PAYLOAD,2024-04-29 19:29:09,15.08842577,0.0001149,53.2172,296.7213,88.8703,271.2421,0.00012323,1.674e-05,0.0,0 STARLINK-3964,1 52536U 22051D   24120.81191706  .00001674  00000-0  12323-3 0  9995,2 52536  53.2172 296.7213 0001149  88.8703 271.2421 15.08842577108951,6917.873,95.437,540.532,538.943,0.0
52536.0,STARLINK-3964,PAYLOAD,2024-04-30 05:01:28,15.08849827,0.000124,53.2173,294.9391,84.9208,275.1926,0.00016645,2.363e-05,0.0,0 STARLINK-3964,1 52536U 22051D   24121.20935335  .00002363  00000-0  16645-3 0  9990,2 52536  53.2173 294.9391 0001240  84.9208 275.1926 15.08849827109014,6917.85,95.437,540.573,538.858,0.0
